H1 CPF  1  MCC 2022 11  3 14  8071 larets
H2  0304206 5557    27944 2022 11 02 23 45 00 2022 11 07 23 57 00   180 1 1  0 0 0
H9
10 0 59888 10620.000000 0     -3332867.553      -270124.050      6209981.682
10 0 59888 10800.000000 0     -4428573.671       106850.445      5487918.170
10 0 59888 10980.000000 0     -5352730.299       506443.648      4564458.015
10 0 59888 11160.000000 0     -6071103.509       909123.011      3473295.831
10 0 59888 11340.000000 0     -6557464.051      1294422.338      2254396.485
10 0 59888 11520.000000 0     -6794625.538      1641928.047       952532.010
10 0 59888 11700.000000 0     -6775119.853      1932292.770      -384397.112
10 0 59888 11880.000000 0     -6501460.083      2148222.055     -1707187.449
10 0 59888 12060.000000 0     -5985973.975      2275378.393     -2967213.865
10 0 59888 12240.000000 0     -5250218.683      2303156.279     -4118281.421
10 0 59888 12420.000000 0     -4324007.937      2225282.358     -5118355.715
10 0 59888 12600.000000 0     -3244120.114      2040213.765     -5931092.410
10 0 59888 12780.000000 0     -2052766.811      1751323.268     -6527115.664
10 0 59888 12960.000000 0      -795895.407      1366867.022     -6885016.860
10 0 59888 13140.000000 0       478599.007       899740.032     -6992048.955
10 0 59888 13320.000000 0      1722680.497       367035.234     -6844522.651
10 0 59888 13500.000000 0      2889955.082      -210580.978     -6447907.645
10 0 59888 13680.000000 0      3937373.163      -809658.627     -5816630.312
10 0 59888 13860.000000 0      4826799.373     -1404893.432     -4973578.314
10 0 59888 14040.000000 0      5526407.234     -1970169.218     -3949323.072
10 0 59888 14220.000000 0      6011849.739     -2479677.182     -2781063.588
10 0 59888 14400.000000 0      6267152.848     -2909064.640     -1511313.688
10 0 59888 14580.000000 0      6285285.471     -3236561.292      -186370.377
10 0 59888 14760.000000 0      6068374.086     -3444027.433      1145381.146
10 0 59888 14940.000000 0      5627545.809     -3517870.408      2435261.277
10 0 59888 15120.000000 0      4982396.839     -3449777.044      3636111.513
10 0 59888 15300.000000 0      4160117.170     -3237222.256      4704042.986
10 0 59888 15480.000000 0      3194324.268     -2883732.806      5600048.632
10 0 59888 15660.000000 0      2123658.695     -2398894.447      6291418.257
10 0 59888 15840.000000 0       990215.115     -1798102.266      6752904.433
10 0 59888 16020.000000 0      -162122.933     -1102070.417      6967611.596
10 0 59888 16200.000000 0     -1289379.429      -336117.554      6927589.285
10 0 59888 16380.000000 0     -2349154.271       470747.864      6634121.719
10 0 59888 16560.000000 0     -3302214.404      1286915.916      6097709.339
10 0 59888 16740.000000 0     -4113959.315      2079404.215      5337737.377
10 0 59888 16920.000000 0     -4755714.233      2815189.493      4381830.652
10 0 59888 17100.000000 0     -5205798.737      3462594.564      3264894.449
10 0 59888 17280.000000 0     -5450317.741      3992669.024      2027863.284
10 0 59888 17460.000000 0     -5483637.063      4380502.302       716195.609
10 0 59888 17640.000000 0     -5308510.149      4606396.867      -621838.114
10 0 59888 17820.000000 0     -4935842.451      4656833.782     -1936995.395
10 0 59888 18000.000000 0     -4384102.858      4525178.874     -3180949.143
10 0 59888 18180.000000 0     -3678410.630      4212083.070     -4308125.277
10 0 59888 18360.000000 0     -2849357.765      3725563.827     -5277398.136
10 0 59888 18540.000000 0     -1931642.914      3080776.610     -6053574.779
10 0 59888 18720.000000 0      -962589.217      2299497.777     -6608628.768
10 0 59888 18900.000000 0        19389.802      1409342.951     -6922646.380
10 0 59888 19080.000000 0       976305.474       442764.513     -6984469.804
10 0 59888 19260.000000 0      1872041.867      -564134.148     -6792042.329
10 0 59888 19440.000000 0      2673693.882     -1572933.686     -6352449.408
10 0 59888 19620.000000 0      3352753.336     -2544338.846     -5681663.641
10 0 59888 19800.000000 0      3886115.998     -3439685.606     -4804004.004
10 0 59888 19980.000000 0      4256877.128     -4222473.669     -3751303.688
10 0 59888 20160.000000 0      4454879.584     -4859856.075     -2561804.713
10 0 59888 20340.000000 0      4477000.249     -5324032.013     -1278807.885
10 0 59888 20520.000000 0      4327150.439     -5593477.187        50891.958
10 0 59888 20700.000000 0      4015982.497     -5653941.669      1378726.670
10 0 59888 20880.000000 0      3560315.127     -5499160.978      2656159.462
10 0 59888 21060.000000 0      2982302.126     -5131238.188      3836492.684
10 0 59888 21240.000000 0      2308391.151     -4560681.971      4876596.074
10 0 59888 21420.000000 0      1568129.486     -3806099.379      5738487.425
10 0 59888 21600.000000 0       792874.595     -2893561.358      6390706.276
10 0 59888 21780.000000 0        14468.287     -1855672.587      6809431.876
10 0 59888 21960.000000 0      -736063.371      -730392.524      6979317.483
10 0 59888 22140.000000 0     -1429736.153       440351.876      6894034.294
10 0 59888 22320.000000 0     -2040722.460      1612220.528      6556509.233
10 0 59888 22500.000000 0     -2547317.648      2740130.258      5978849.411
10 0 59888 22680.000000 0     -2932726.068      3779990.043      5181953.218
10 0 59888 22860.000000 0     -3185641.546      4690446.023      4194809.222
10 0 59888 23040.000000 0     -3300598.381      5434571.831      3053486.609
10 0 59888 23220.000000 0     -3278070.416      5981427.597      1799835.144
10 0 59888 23400.000000 0     -3124309.536      6307405.374       479936.909
10 0 59888 23580.000000 0     -2850927.957      6397293.225      -857629.493
10 0 59888 23760.000000 0     -2474243.506      6244994.738     -2163646.278
10 0 59888 23940.000000 0     -2014415.570      5853848.465     -3390146.700
10 0 59888 24120.000000 0     -1494423.019      5236535.755     -4492226.723
10 0 59888 24300.000000 0      -938951.937      4414601.653     -5429705.213
10 0 59888 24480.000000 0      -373250.012      3417622.805     -6168569.826
10 0 59888 24660.000000 0       177999.961      2282068.847     -6682165.656
10 0 59888 24840.000000 0       691734.334      1049913.333     -6952088.381
10 0 59888 25020.000000 0      1147448.088      -232938.065     -6968776.333
10 0 59888 25200.000000 0      1527990.707     -1518351.596     -6731798.802
10 0 59888 25380.000000 0      1820193.130     -2757744.096     -6249841.387
10 0 59888 25560.000000 0      2015313.305     -3903885.159     -5540402.954
10 0 59888 25740.000000 0      2109288.423     -4912683.578     -4629203.225
10 0 59888 25920.000000 0      2102784.087     -5744887.807     -3549298.875
10 0 59888 26100.000000 0      2001038.741     -6367640.095     -2339935.682
10 0 59888 26280.000000 0      1813505.740     -6755821.645     -1045155.636
10 0 59888 26460.000000 0      1553307.705     -6893115.666       287799.994
10 0 59888 26640.000000 0      1236528.493     -6772728.096      1610232.081
10 0 59888 26820.000000 0       881374.830     -6397725.567      2873794.197
10 0 59888 27000.000000 0       507251.270     -5780964.341      4032296.039
10 0 59888 27180.000000 0       133794.523     -4944618.707      5043410.404
10 0 59888 27360.000000 0      -220080.470     -3919341.038      5870219.272
10 0 59888 27540.000000 0      -537075.111     -2743092.732      6482544.546
10 0 59888 27720.000000 0      -802302.444     -1459703.067      6858015.779
10 0 59888 27900.000000 0     -1003951.864      -117226.723      6982853.709
10 0 59888 28080.000000 0     -1133799.475      1233851.219      6852363.004
10 0 59888 28260.000000 0     -1187543.815      2542505.803      6471115.038
10 0 59888 28440.000000 0     -1164954.312      3759095.809      5852816.997
10 0 59888 28620.000000 0     -1069829.127      4837260.983      5019865.905
10 0 59888 28800.000000 0      -909761.168      5735729.393      4002589.873
10 0 59888 28980.000000 0      -695720.097      6419962.735      2838183.337
10 0 59888 29160.000000 0      -441468.349      6863567.106      1569365.266
10 0 59888 29340.000000 0      -162829.927      7049393.524       242788.239
10 0 59888 29520.000000 0       123151.594      6970255.839     -1092727.239
10 0 59888 29700.000000 0       399117.978      6629227.914     -2388060.058
10 0 59888 29880.000000 0       648309.867      6039493.846     -3595663.198
10 0 59888 30060.000000 0       855442.381      5223775.456     -4671353.869
10 0 59888 30240.000000 0      1007500.561      4213371.951     -5575945.239
10 0 59888 30420.000000 0      1094413.528      3046869.675     -6276651.918
10 0 59888 30600.000000 0      1109575.131      1768594.842     -6748225.544
10 0 59888 30780.000000 0      1050192.460       426886.765     -6973793.095
10 0 59888 30960.000000 0       917452.450      -927736.973     -6945395.343
10 0 59888 31140.000000 0       716502.312     -2244464.365     -6664219.756
10 0 59888 31320.000000 0       456247.840     -3474057.639     -6140535.718
10 0 59888 31500.000000 0       148975.714     -4570666.680     -5393343.230
10 0 59888 31680.000000 0      -190188.345     -5493531.356     -4449725.598
10 0 59888 31860.000000 0      -543966.948     -6208514.587     -3343922.018
10 0 59888 32040.000000 0      -893740.206     -6689408.207     -2116132.447
10 0 59888 32220.000000 0     -1220442.160     -6918951.313      -811085.325
10 0 59888 32400.000000 0     -1505502.588     -6889506.336       523590.563
10 0 59888 32580.000000 0     -1731787.751     -6603348.736      1839124.598
10 0 59888 32760.000000 0     -1884492.519     -6072552.512      3087419.122
10 0 59888 32940.000000 0     -1951934.435     -5318471.764      4222841.127
10 0 59888 33120.000000 0     -1926206.882     -4370847.554      5203907.458
10 0 59888 33300.000000 0     -1803663.009     -3266594.479      5994797.121
10 0 59888 33480.000000 0     -1585207.913     -2048322.371      6566639.644
99
